[{"OBJECT_NAME":"STARLINK-31949","OBJECT_ID":"2024-100G","EPOCH":"2026-03-09T04:57:48.273408","MEAN_MOTION":15.27593382,"ECCENTRICITY":0.00014789,"INCLINATION":42.9998,"RA_OF_ASC_NODE":128.0653,"ARG_OF_PERICENTER":116.9776,"MEAN_ANOMALY":243.1227,"EPHEMERIS_TYPE":0,"CLASSIFICATION_TYPE":"U","NORAD_CAT_ID":59891,"ELEMENT_SET_NO":999,"REV_AT_EPOCH":10098,"BSTAR":-0.00019194479,"MEAN_MOTION_DOT":-5.542e-5,"MEAN_MOTION_DDOT":0},{"OBJECT_NAME":"FLOCK 4G-24","OBJECT_ID":"2025-009AE","EPOCH":"2026-03-09T17:24:07.838208","MEAN_MOTION":15.27784978,"ECCENTRICITY":0.0001802,"INCLINATION":97.4061,"RA_OF_ASC_NODE":151.514,"ARG_OF_PERICENTER":280.2808,"MEAN_ANOMALY":79.8228,"EPHEMERIS_TYPE":0,"CLASSIFICATION_TYPE":"U","NORAD_CAT_ID":62637,"ELEMENT_SET_NO":999,"REV_AT_EPOCH":6373,"BSTAR":0.00038996067,"MEAN_MOTION_DOT":0.00010513,"MEAN_MOTION_DDOT":0}]
